{
  "type": "FeatureCollection",
  "features": [
    {
      "type": "Feature",
      "properties": {
        "norad_id": 67088,
        "name": "STARLINK-35882",
        "group": "last-30-days",
        "lat": -54.48359995461375,
        "lon": -165.2157881975412,
        "alt_km": 306.15156999309784,
        "timestamp": "2025-12-21T09:37:21.375798+00:00",
        "meta_object_name": "STARLINK-35882",
        "meta_object_id": "2025-298P",
        "meta_epoch": "2025-12-21T04:00:01.998720",
        "meta_mean_motion": 15.90881075,
        "meta_eccentricity": 0.0004036,
        "meta_inclination": 69.9979,
        "meta_ra_of_asc_node": 226.1529,
        "meta_arg_of_pericenter": 276.1428,
        "meta_mean_anomaly": 123.0202,
        "meta_ephemeris_type": 0,
        "meta_classification_type": "U",
        "meta_norad_cat_id": 67088,
        "meta_element_set_no": 999,
        "meta_rev_at_epoch": 233,
        "meta_bstar": -0.005446,
        "meta_mean_motion_dot": -0.01698273,
        "meta_mean_motion_ddot": 0.00079499,
        "tle_line1": "1 67088U 25298P   25355.16668980 -.01698273  79499-3 -54460-2 0  9999",
        "tle_line2": "2 67088  69.9979 226.1529 0004036 276.1428 123.0202 15.90881075  2332"
      },
      "geometry": {
        "type": "Point",
        "coordinates": [
          -165.2157881975412,
          -54.48359995461375
        ]
      }
    },
    {
      "type": "Feature",
      "properties": {
        "norad_id": 67089,
        "name": "STARLINK-35763",
        "group": "last-30-days",
        "lat": -52.8905717342219,
        "lon": -163.31210775183507,
        "alt_km": 305.98624317264876,
        "timestamp": "2025-12-21T09:37:21.375808+00:00",
        "meta_object_name": "STARLINK-35763",
        "meta_object_id": "2025-298Q",
        "meta_epoch": "2025-12-21T04:00:01.998720",
        "meta_mean_motion": 15.90952008,
        "meta_eccentricity": 0.000402,
        "meta_inclination": 69.9977,
        "meta_ra_of_asc_node": 226.1504,
        "meta_arg_of_pericenter": 276.6441,
        "meta_mean_anomaly": 124.4188,
        "meta_ephemeris_type": 0,
        "meta_classification_type": "U",
        "meta_norad_cat_id": 67089,
        "meta_element_set_no": 999,
        "meta_rev_at_epoch": 233,
        "meta_bstar": -0.0055023,
        "meta_mean_motion_dot": -0.01721728,
        "meta_mean_motion_ddot": 0.00081605,
        "tle_line1": "1 67089U 25298Q   25355.16668980 -.01721728  81605-3 -55023-2 0  9990",
        "tle_line2": "2 67089  69.9977 226.1504 0004020 276.6441 124.4188 15.90952008  2330"
      },
      "geometry": {
        "type": "Point",
        "coordinates": [
          -163.31210775183507,
          -52.8905717342219
        ]
      }
    },
    {
      "type": "Feature",
      "properties": {
        "norad_id": 67090,
        "name": "STARLINK-36060",
        "group": "last-30-days",
        "lat": -51.58415535882609,
        "lon": -161.87603834369432,
        "alt_km": 305.8083551008076,
        "timestamp": "2025-12-21T09:37:21.375818+00:00",
        "meta_object_name": "STARLINK-36060",
        "meta_object_id": "2025-298R",
        "meta_epoch": "2025-12-21T04:00:01.998720",
        "meta_mean_motion": 15.91008248,
        "meta_eccentricity": 0.0004039,
        "meta_inclination": 69.9974,
        "meta_ra_of_asc_node": 226.1485,
        "meta_arg_of_pericenter": 277.5844,
        "meta_mean_anomaly": 125.0106,
        "meta_ephemeris_type": 0,
        "meta_classification_type": "U",
        "meta_norad_cat_id": 67090,
        "meta_element_set_no": 999,
        "meta_rev_at_epoch": 227,
        "meta_bstar": -0.0055136,
        "meta_mean_motion_dot": -0.01730139,
        "meta_mean_motion_ddot": 0.00082392,
        "tle_line1": "1 67090U 25298R   25355.16668980 -.01730139  82392-3 -55136-2 0  9997",
        "tle_line2": "2 67090  69.9974 226.1485 0004039 277.5844 125.0106 15.91008248  2273"
      },
      "geometry": {
        "type": "Point",
        "coordinates": [
          -161.87603834369432,
          -51.58415535882609
        ]
      }
    },
    {
      "type": "Feature",
      "properties": {
        "norad_id": 67091,
        "name": "STARLINK-36097",
        "group": "last-30-days",
        "lat": -49.970258405491755,
        "lon": -160.2342641985634,
        "alt_km": 305.72339081340124,
        "timestamp": "2025-12-21T09:37:21.375829+00:00",
        "meta_object_name": "STARLINK-36097",
        "meta_object_id": "2025-298S",
        "meta_epoch": "2025-12-21T04:00:01.998720",
        "meta_mean_motion": 15.91080653,
        "meta_eccentricity": 0.0004007,
        "meta_inclination": 69.9975,
        "meta_ra_of_asc_node": 226.1462,
        "meta_arg_of_pericenter": 274.8333,
        "meta_mean_anomaly": 129.626,
        "meta_ephemeris_type": 0,
        "meta_classification_type": "U",
        "meta_norad_cat_id": 67091,
        "meta_element_set_no": 999,
        "meta_rev_at_epoch": 233,
        "meta_bstar": -0.0055804,
        "meta_mean_motion_dot": -0.01757222,
        "meta_mean_motion_ddot": 0.00084864,
        "tle_line1": "1 67091U 25298S   25355.16668980 -.01757222  84864-3 -55804-2 0  9998",
        "tle_line2": "2 67091  69.9975 226.1462 0004007 274.8333 129.6260 15.91080653  2336"
      },
      "geometry": {
        "type": "Point",
        "coordinates": [
          -160.2342641985634,
          -49.970258405491755
        ]
      }
    },
    {
      "type": "Feature",
      "properties": {
        "norad_id": 67092,
        "name": "STARLINK-35792",
        "group": "last-30-days",
        "lat": -48.62040818693699,
        "lon": -158.95943791122235,
        "alt_km": 305.5221439744755,
        "timestamp": "2025-12-21T09:37:21.375842+00:00",
        "meta_object_name": "STARLINK-35792",
        "meta_object_id": "2025-298T",
        "meta_epoch": "2025-12-21T04:00:01.998720",
        "meta_mean_motion": 15.91137965,
        "meta_eccentricity": 0.0004028,
        "meta_inclination": 69.9975,
        "meta_ra_of_asc_node": 226.1444,
        "meta_arg_of_pericenter": 276.5543,
        "meta_mean_anomaly": 129.4476,
        "meta_ephemeris_type": 0,
        "meta_classification_type": "U",
        "meta_norad_cat_id": 67092,
        "meta_element_set_no": 999,
        "meta_rev_at_epoch": 227,
        "meta_bstar": -0.0055993,
        "meta_mean_motion_dot": -0.01768199,
        "meta_mean_motion_ddot": 0.00085901,
        "tle_line1": "1 67092U 25298T   25355.16668980 -.01768199  85901-3 -55993-2 0  9996",
        "tle_line2": "2 67092  69.9975 226.1444 0004028 276.5543 129.4476 15.91137965  2271"
      },
      "geometry": {
        "type": "Point",
        "coordinates": [
          -158.95943791122235,
          -48.62040818693699
        ]
      }
    },
    {
      "type": "Feature",
      "properties": {
        "norad_id": 67093,
        "name": "STARLINK-35784",
        "group": "last-30-days",
        "lat": -47.12732100356696,
        "lon": -157.64059160368893,
        "alt_km": 305.35031677600546,
        "timestamp": "2025-12-21T09:37:21.375852+00:00",
        "meta_object_name": "STARLINK-35784",
        "meta_object_id": "2025-298U",
        "meta_epoch": "2025-12-21T04:00:01.998720",
        "meta_mean_motion": 15.91201693,
        "meta_eccentricity": 0.0004024,
        "meta_inclination": 69.9973,
        "meta_ra_of_asc_node": 226.1423,
        "meta_arg_of_pericenter": 277.1983,
        "meta_mean_anomaly": 130.4919,
        "meta_ephemeris_type": 0,
        "meta_classification_type": "U",
        "meta_norad_cat_id": 67093,
        "meta_element_set_no": 999,
        "meta_rev_at_epoch": 233,
        "meta_bstar": -0.0056393,
        "meta_mean_motion_dot": -0.01786431,
        "meta_mean_motion_ddot": 0.0008761,
        "tle_line1": "1 67093U 25298U   25355.16668980 -.01786431  87610-3 -56393-2 0  9990",
        "tle_line2": "2 67093  69.9973 226.1423 0004024 277.1983 130.4919 15.91201693  2339"
      },
      "geometry": {
        "type": "Point",
        "coordinates": [
          -157.64059160368893,
          -47.12732100356696
        ]
      }
    },
    {
      "type": "Feature",
      "properties": {
        "norad_id": 67094,
        "name": "STARLINK-36202",
        "group": "last-30-days",
        "lat": -45.417850386162115,
        "lon": -156.23275662354686,
        "alt_km": 305.16129523449763,
        "timestamp": "2025-12-21T09:37:21.375863+00:00",
        "meta_object_name": "STARLINK-36202",
        "meta_object_id": "2025-298V",
        "meta_epoch": "2025-12-21T04:00:01.998720",
        "meta_mean_motion": 15.91257933,
        "meta_eccentricity": 0.0004053,
        "meta_inclination": 69.9972,
        "meta_ra_of_asc_node": 226.1401,
        "meta_arg_of_pericenter": 277.3067,
        "meta_mean_anomaly": 132.3051,
        "meta_ephemeris_type": 0,
        "meta_classification_type": "U",
        "meta_norad_cat_id": 67094,
        "meta_element_set_no": 999,
        "meta_rev_at_epoch": 233,
        "meta_bstar": -0.0056134,
        "meta_mean_motion_dot": -0.01783399,
        "meta_mean_motion_ddot": 0.00087383,
        "tle_line1": "1 67094U 25298V   25355.16668980 -.01783399  87383-3 -56134-2 0  9991",
        "tle_line2": "2 67094  69.9972 226.1401 0004053 277.3067 132.3051 15.91257933  2338"
      },
      "geometry": {
        "type": "Point",
        "coordinates": [
          -156.23275662354686,
          -45.417850386162115
        ]
      }
    }
  ]
}